NORAD_CAT_ID,OBJECT_NAME,OBJECT_TYPE,EPOCH,MEAN_MOTION,ECCENTRICITY,INCLINATION,RA_OF_ASC_NODE,ARG_OF_PERICENTER,MEAN_ANOMALY,BSTAR,MEAN_MOTION_DOT,MEAN_MOTION_DDOT,TLE_LINE0,TLE_LINE1,TLE_LINE2,SEMIMAJOR_AXIS,PERIOD,APOGEE,PERIGEE,DECAYED
55785.0,STARLINK-5818,PAYLOAD,2023-12-20 13:35:09,14.98332417,0.0002508,70.0008,87.2269,250.3024,109.7865,-0.0001201,-1.526e-05,0.0,0 STARLINK-5818,1 55785U 23028AW  23354.56608588 -.00001526  00000-0 -12010-3 0  9991,2 55785  70.0008  87.2269 0002508 250.3024 109.7865 14.98332417 45672,6950.185,96.107,573.794,570.307,0.0
55785.0,STARLINK-5818,PAYLOAD,2023-12-20 16:47:25,14.98333033,0.0002708,70.001,86.8907,262.5852,97.4999,-6.0433e-05,-8.14e-06,0.0,0 STARLINK-5818,1 55785U 23028AW  23354.69960395 -.00000814  00000-0 -60433-4 0  9994,2 55785  70.0010  86.8907 0002708 262.5852  97.4999 14.98333033 45682,6950.184,96.107,573.931,570.166,0.0
55785.0,STARLINK-5818,PAYLOAD,2023-12-21 13:37:10,14.98332,0.0002606,70.0009,84.7019,260.354,99.7325,0.00013621,1.533e-05,0.0,0 STARLINK-5818,1 55785U 23028AW  23355.56747860  .00001533  00000-0  13621-3 0  9994,2 55785  70.0009  84.7019 0002606 260.3540  99.7325 14.98332000 45825,6950.187,96.107,573.863,570.24,0.0
55785.0,STARLINK-5818,PAYLOAD,2023-12-21 15:13:18,14.9833788,0.0002438,70.0009,84.5336,258.4205,101.6681,7.2203e-05,7.69e-06,0.0,0 STARLINK-5818,1 55785U 23028AW  23355.63423642  .00000769  00000-0  72203-4 0  9993,2 55785  70.0009  84.5336 0002438 258.4205 101.6681 14.98337880 45823,6950.169,96.106,573.728,570.339,0.0
55785.0,STARLINK-5818,PAYLOAD,2023-12-22 12:03:03,14.98326374,0.0002663,70.0026,82.3479,224.3497,135.7449,1.242e-05,5.5e-07,0.0,0 STARLINK-5818,1 55785U 23028AW  23356.50212498  .00000055  00000-0  12420-4 0  9998,2 55785  70.0026  82.3479 0002663 224.3497 135.7449 14.98326374 45951,6950.204,96.107,573.92,570.218,0.0
55785.0,STARLINK-5818,PAYLOAD,2023-12-22 13:39:11,14.98322777,0.0002538,70.0022,82.1794,234.2334,125.8589,-1.901e-05,-3.2e-06,0.0,0 STARLINK-5818,1 55785U 23028AW  23356.56888843 -.00000320  00000-0 -19010-4 0  9996,2 55785  70.0022  82.1794 0002538 234.2334 125.8589 14.98322777 45976,6950.215,96.107,573.844,570.316,0.0
55785.0,STARLINK-5818,PAYLOAD,2023-12-22 15:15:19,14.98328025,0.0002677,70.0017,82.0104,251.4229,108.6639,-5.9562e-06,-1.64e-06,0.0,0 STARLINK-5818,1 55785U 23028AW  23356.63564529 -.00000164  00000-0 -59562-5 0  9999,2 55785  70.0017  82.0104 0002677 251.4229 108.6639 14.98328025 45980,6950.199,96.107,573.925,570.203,0.0
55785.0,STARLINK-5818,PAYLOAD,2023-12-23 12:05:04,14.98328662,0.0002693,70.0018,79.8223,246.0155,114.0722,-6.276e-05,-8.42e-06,0.0,0 STARLINK-5818,1 55785U 23028AW  23357.50352612 -.00000842  00000-0 -62760-4 0  9990,2 55785  70.0018  79.8223 0002693 246.0155 114.0722 14.98328662 46109,6950.197,96.107,573.934,570.19,0.0
55785.0,STARLINK-5818,PAYLOAD,2023-12-23 13:41:12,14.98330271,0.0002651,70.0022,79.6547,238.3235,121.7666,-4.5988e-05,-6.42e-06,0.0,0 STARLINK-5818,1 55785U 23028AW  23357.57028439 -.00000642  00000-0 -45988-4 0  9995,2 55785  70.0022  79.6547 0002651 238.3235 121.7666 14.98330271 46121,6950.192,96.107,573.9,570.215,0.0
55785.0,STARLINK-5818,PAYLOAD,2023-12-23 15:17:20,14.9833137,0.0002699,70.0013,79.4845,252.9848,107.1015,-5.0878e-05,-7e-06,0.0,0 STARLINK-5818,1 55785U 23028AW  23357.63704422 -.00000700  00000-0 -50878-4 0  9994,2 55785  70.0013  79.4845 0002699 252.9848 107.1015 14.98331370 46132,6950.189,96.107,573.93,570.178,0.0
55785.0,STARLINK-5818,PAYLOAD,2023-12-24 12:07:04,14.98333296,0.0002896,70.001,77.2961,259.2709,100.8124,6.2438e-05,6.52e-06,0.0,0 STARLINK-5818,1 55785U 23028AW  23358.50491827  .00000652  00000-0  62438-4 0  9992,2 55785  70.0010  77.2961 0002896 259.2709 100.8124 14.98333296 46252,6950.183,96.107,574.06,570.035,0.0
55785.0,STARLINK-5818,PAYLOAD,2023-12-24 13:43:12,14.98334114,0.0002887,70.001,77.1278,259.0394,101.0441,7.0814e-05,7.52e-06,0.0,0 STARLINK-5818,1 55785U 23028AW  23358.57167733  .00000752  00000-0  70814-4 0  9993,2 55785  70.0010  77.1278 0002887 259.0394 101.0441 14.98334114 46277,6950.18,96.107,574.052,570.039,0.0
55785.0,STARLINK-5818,PAYLOAD,2023-12-24 15:19:20,14.98335733,0.0002883,70.0011,76.9598,259.5125,100.571,8.6703e-05,9.42e-06,0.0,0 STARLINK-5818,1 55785U 23028AW  23358.63843566  .00000942  00000-0  86703-4 0  9990,2 55785  70.0011  76.9598 0002883 259.5125 100.5710 14.98335733 46285,6950.175,96.107,574.044,570.036,0.0
55785.0,STARLINK-5818,PAYLOAD,2023-12-25 12:09:06,14.98328623,0.0002591,70.0018,74.7725,253.4096,106.6778,1.8839e-05,1.32e-06,0.0,0 STARLINK-5818,1 55785U 23028AW  23359.50632193  .00000132  00000-0  18839-4 0  9995,2 55785  70.0018  74.7725 0002591 253.4096 106.6778 14.98328623 46401,6950.197,96.107,573.863,570.261,0.0
55785.0,STARLINK-5818,PAYLOAD,2023-12-25 13:45:14,14.98329212,0.0002531,70.0021,74.6045,249.6581,110.4306,3.7752e-06,-4.8e-07,0.0,0 STARLINK-5818,1 55785U 23028AW  23359.57308182 -.00000048  00000-0  37752-5 0  9993,2 55785  70.0021  74.6045 0002531 249.6581 110.4306 14.98329212 46426,6950.195,96.107,573.819,570.301,0.0
55785.0,STARLINK-5818,PAYLOAD,2023-12-25 15:21:22,14.98327958,0.0002474,70.002,74.4354,250.7768,109.3124,8.1598e-06,4e-08,0.0,0 STARLINK-5818,1 55785U 23028AW  23359.63984271  .00000004  00000-0  81598-5 0  9997,2 55785  70.0020  74.4354 0002474 250.7768 109.3124 14.98327958 46433,6950.199,96.107,573.784,570.345,0.0
55785.0,STARLINK-5818,PAYLOAD,2023-12-26 13:47:15,14.98330454,0.0002507,70.0016,72.078,254.9429,105.1453,-3.5972e-05,-5.22e-06,0.0,0 STARLINK-5818,1 55785U 23028AW  23360.57448123 -.00000522  00000-0 -35972-4 0  9994,2 55785  70.0016  72.0780 0002507 254.9429 105.1453 14.98330454 46571,6950.191,96.107,573.799,570.314,0.0
55785.0,STARLINK-5818,PAYLOAD,2023-12-26 15:23:23,14.98333043,0.0002753,70.0012,71.9078,284.6974,75.388,2.4107e-05,1.95e-06,0.0,0 STARLINK-5818,1 55785U 23028AW  23360.64124010  .00000195  00000-0  24107-4 0  9990,2 55785  70.0012  71.9078 0002753 284.6974  75.3880 14.98333043 46572,6950.183,96.107,573.962,570.135,0.0
55785.0,STARLINK-5818,PAYLOAD,2023-12-27 13:49:16,14.98330499,0.0002728,70.0006,69.5528,264.5112,95.5736,1.4452e-05,7.9e-07,0.0,0 STARLINK-5818,1 55785U 23028AW  23361.57587978  .00000079  00000-0  14452-4 0  9992,2 55785  70.0006  69.5528 0002728 264.5112  95.5736 14.98330499 46724,6950.191,96.107,573.952,570.16,0.0
55785.0,STARLINK-5818,PAYLOAD,2023-12-27 15:25:23,14.98332622,0.000297,70.0,69.3829,270.0494,90.0324,5.1335e-05,5.2e-06,0.0,0 STARLINK-5818,1 55785U 23028AW  23361.64263705  .00000520  00000-0  51335-4 0  9991,2 55785  70.0000  69.3829 0002970 270.0494  90.0324 14.98332622 46727,6950.185,96.107,574.114,569.986,0.0
55785.0,STARLINK-5818,PAYLOAD,2023-12-28 12:15:10,14.98314188,0.0002851,70.0008,67.1953,269.6146,90.4687,-0.00019954,-2.472e-05,0.0,0 STARLINK-5818,1 55785U 23028AW  23362.51053423 -.00002472  00000-0 -19954-3 0  9992,2 55785  70.0008  67.1953 0002851 269.6146  90.4687 14.98314188 46852,6950.242,96.108,574.088,570.125,0.0
55785.0,STARLINK-5818,PAYLOAD,2023-12-28 13:51:16,14.98350033,0.0002697,70.0003,67.0266,274.8582,85.2269,-0.00027604,-3.387e-05,0.0,0 STARLINK-5818,1 55785U 23028AW  23362.57727426 -.00003387  00000-0 -27604-3 0  9996,2 55785  70.0003  67.0266 0002697 274.8582  85.2269 14.98350033 46872,6950.131,96.106,573.87,570.121,0.0
55785.0,STARLINK-5818,PAYLOAD,2023-12-29 04:16:29,14.98328264,0.0002833,70.0002,65.5128,262.4776,97.6061,1.7981e-05,1.22e-06,0.0,0 STARLINK-5818,1 55785U 23028AW  23363.17811971  .00000122  00000-0  17981-4 0  9992,2 55785  70.0002  65.5128 0002833 262.4776  97.6061 14.98328264 46958,6950.198,96.107,574.032,570.094,0.0
55785.0,STARLINK-5818,PAYLOAD,2023-12-29 13:53:17,14.98330286,0.0002799,70.0003,64.5032,263.0532,97.0308,-1.7542e-06,-1.14e-06,0.0,0 STARLINK-5818,1 55785U 23028AW  23363.57867927 -.00000114  00000-0 -17542-5 0  9995,2 55785  70.0003  64.5032 0002799 263.0532  97.0308 14.98330286 47024,6950.192,96.107,574.002,570.112,0.0
55785.0,STARLINK-5818,PAYLOAD,2023-12-30 04:18:30,14.98329796,0.0002819,70.0003,62.9883,264.4618,95.622,1.4484e-05,8e-07,0.0,0 STARLINK-5818,1 55785U 23028AW  23364.17951883  .00000080  00000-0  14484-4 0  9998,2 55785  70.0003  62.9883 0002819 264.4618  95.6220 14.98329796 47103,6950.194,96.107,574.018,570.099,0.0
55785.0,STARLINK-5818,PAYLOAD,2023-12-30 13:55:18,14.9833151,0.0002794,70.0004,61.9782,264.235,95.8491,3.4597e-05,3.2e-06,0.0,0 STARLINK-5818,1 55785U 23028AW  23364.58007693  .00000320  00000-0  34597-4 0  9998,2 55785  70.0004  61.9782 0002794 264.2350  95.8491 14.98331510 47170,6950.188,96.107,573.995,570.111,0.0
55785.0,STARLINK-5818,PAYLOAD,2023-12-31 12:21:12,14.98326101,0.0002656,70.0007,59.6219,264.7962,95.2894,-1.175e-05,-2.33e-06,0.0,0 STARLINK-5818,1 55785U 23028AW  23365.51472239 -.00000233  00000-0 -11750-4 0  9995,2 55785  70.0007  59.6219 0002656 264.7962  95.2894 14.98326101 47309,6950.205,96.107,573.916,570.224,0.0
55785.0,STARLINK-5818,PAYLOAD,2023-12-31 13:57:20,14.9832579,0.0002664,70.0006,59.4533,265.9498,94.1357,-1.5586e-05,-2.79e-06,0.0,0 STARLINK-5818,1 55785U 23028AW  23365.58148287 -.00000279  00000-0 -15586-4 0  9996,2 55785  70.0006  59.4533 0002664 265.9498  94.1357 14.98325790 47328,6950.206,96.107,573.922,570.219,0.0
55785.0,STARLINK-5818,PAYLOAD,2024-01-01 04:22:32,14.9833262,0.0002743,70.0003,57.9381,267.6149,92.4696,1.1546e-05,4.5e-07,0.0,0 STARLINK-5818,1 55785U 23028AW  24001.18231764  .00000045  00000-0  11546-4 0  9994,2 55785  70.0003  57.9381 0002743 267.6149  92.4696 14.98332620 47405,6950.185,96.107,573.956,570.143,0.0
55785.0,STARLINK-5818,PAYLOAD,2024-01-01 13:59:21,14.98327701,0.0002864,69.9999,56.9273,268.549,91.5341,-4.5353e-05,-6.34e-06,0.0,0 STARLINK-5818,1 55785U 23028AW  24001.58288213 -.00000634  00000-0 -45353-4 0  9998,2 55785  69.9999  56.9273 0002864 268.5490  91.5341 14.98327701 47476,6950.2,96.107,574.056,570.074,0.0
